NORAD_CAT_ID,OBJECT_NAME,OBJECT_TYPE,EPOCH,MEAN_MOTION,ECCENTRICITY,INCLINATION,RA_OF_ASC_NODE,ARG_OF_PERICENTER,MEAN_ANOMALY,BSTAR,MEAN_MOTION_DOT,MEAN_MOTION_DDOT,TLE_LINE0,TLE_LINE1,TLE_LINE2,SEMIMAJOR_AXIS,PERIOD,APOGEE,PERIGEE,DECAYED
51717.0,STARLINK-3445,PAYLOAD,2024-08-09 11:10:30,15.08852114,0.0002449,53.2168,40.4699,74.7774,285.3489,0.00029301,4.38e-05,0.0,0 STARLINK-3445,1 51717U 22016D   24222.46562927  .00004380  00000-0  29301-3 0  9998,2 51717  53.2168  40.4699 0002449  74.7774 285.3489 15.08852114136289,6917.843,95.437,541.403,538.014,0.0
51717.0,STARLINK-3445,PAYLOAD,2024-08-09 19:07:26,15.08835795,0.000126,53.2174,38.9839,89.9033,270.2104,2.4039e-07,-2.84e-06,0.0,0 STARLINK-3445,1 51717U 22016D   24222.79683279 -.00000284  00000-0  24039-6 0  9994,2 51717  53.2174  38.9839 0001260  89.9033 270.2104 15.08835795137475,6917.893,95.438,540.63,538.887,0.0
51717.0,STARLINK-3445,PAYLOAD,2024-08-10 20:33:36,15.08849416,0.0001197,53.2171,34.2259,83.9335,276.1793,0.00032702,4.922e-05,0.0,0 STARLINK-3445,1 51717U 22016D   24223.85667094  .00004922  00000-0  32702-3 0  9994,2 51717  53.2171  34.2259 0001197  83.9335 276.1793 15.08849416137637,6917.852,95.437,540.545,538.889,0.0
51717.0,STARLINK-3445,PAYLOAD,2024-08-11 10:52:05,15.08829225,0.0001752,53.2165,31.5485,80.3707,279.7483,-0.00012445,-2.268e-05,0.0,0 STARLINK-3445,1 51717U 22016D   24224.45283882 -.00002268  00000-0 -12445-3 0  9995,2 51717  53.2165  31.5485 0001752  80.3707 279.7483 15.08829225137723,6917.913,95.438,540.99,538.566,0.0
51717.0,STARLINK-3445,PAYLOAD,2024-08-11 17:13:37,15.08840807,0.0002031,53.2166,30.3604,81.0975,279.0247,0.00023434,3.443e-05,0.0,0 STARLINK-3445,1 51717U 22016D   24224.71779754  .00003443  00000-0  23434-3 0  9996,2 51717  53.2166  30.3604 0002031  81.0975 279.0247 15.08840807137764,6917.878,95.438,541.148,538.338,0.0
51717.0,STARLINK-3445,PAYLOAD,2024-08-12 04:21:19,15.0885294,0.0002386,53.2167,28.2792,81.0241,279.1021,0.00054214,8.354e-05,0.0,0 STARLINK-3445,1 51717U 22016D   24225.18147492  .00008354  00000-0  54214-3 0  9992,2 51717  53.2167  28.2792 0002386  81.0241 279.1021 15.08852940137838,6917.841,95.437,541.356,538.055,0.0
51717.0,STARLINK-3445,PAYLOAD,2024-08-12 20:15:10,15.08857982,0.0002002,53.2172,25.3027,90.4539,269.6682,0.00077492,0.00012072,0.0,0 STARLINK-3445,1 51717U 22016D   24225.84387253  .00012072  00000-0  77492-3 0  9991,2 51717  53.2172  25.3027 0002002  90.4539 269.6682 15.08857982137931,6917.825,95.436,541.075,538.305,0.0
51717.0,STARLINK-3445,PAYLOAD,2024-08-12 21:50:33,15.08882469,0.0001663,53.2173,25.005,101.7165,258.4014,0.0017454,0.00027632,0.0,0 STARLINK-3445,1 51717U 22016D   24225.91010836  .00027632  00000-0  17454-2 0  9998,2 51717  53.2173  25.0050 0001663 101.7165 258.4014 15.08882469136806,6917.751,95.435,540.766,538.465,0.0
51717.0,STARLINK-3445,PAYLOAD,2024-08-13 04:12:05,15.08875448,0.0002521,53.2177,23.8162,67.1065,293.0193,0.0010583,0.00016612,0.0,0 STARLINK-3445,1 51717U 22016D   24226.17506300  .00016612  00000-0  10583-2 0  9995,2 51717  53.2177  23.8162 0002521  67.1065 293.0193 15.08875448137980,6917.772,95.435,541.381,537.893,0.0
51717.0,STARLINK-3445,PAYLOAD,2024-08-13 10:33:39,15.08800323,0.0002309,53.2158,22.6302,69.3224,290.8015,-0.0016986,-0.00027192,0.0,0 STARLINK-3445,1 51717U 22016D   24226.44003869 -.00027192  00000-0 -16986-2 0  9997,2 51717  53.2158  22.6302 0002309  69.3224 290.8015 15.08800323138021,6918.002,95.44,541.464,538.269,0.0
51717.0,STARLINK-3445,PAYLOAD,2024-08-13 21:41:22,15.08796591,0.0002226,53.2142,20.5436,83.4767,276.6478,-0.00077442,-0.00012578,0.0,0 STARLINK-3445,1 51717U 22016D   24226.90373340 -.00012578  00000-0 -77442-3 0  9999,2 51717  53.2142  20.5436 0002226  83.4767 276.6478 15.08796591136952,6918.013,95.44,541.418,538.338,0.0
51717.0,STARLINK-3445,PAYLOAD,2024-08-14 13:35:14,15.08832078,0.0001675,53.2192,17.5732,50.5778,309.5362,0.00032077,4.82e-05,0.0,0 STARLINK-3445,1 51717U 22016D   24227.56613461  .00004820  00000-0  32077-3 0  9997,2 51717  53.2192  17.5732 0001675  50.5778 309.5362 15.08832078138193,6917.905,95.438,540.928,538.611,0.0
51717.0,STARLINK-3445,PAYLOAD,2024-08-14 16:46:00,15.08840434,0.0001582,53.2186,16.9764,74.7565,285.3602,0.00082617,0.00012885,0.0,0 STARLINK-3445,1 51717U 22016D   24227.69861284  .00012885  00000-0  82617-3 0  9994,2 51717  53.2186  16.9764 0001582  74.7565 285.3602 15.08840434137072,6917.879,95.438,540.838,538.65,0.0
51717.0,STARLINK-3445,PAYLOAD,2024-08-15 16:36:46,15.08855147,0.0001558,53.2181,12.5133,68.4537,291.6621,0.00021771,3.18e-05,0.0,0 STARLINK-3445,1 51717U 22016D   24228.69220360  .00003180  00000-0  21771-3 0  9991,2 51717  53.2181  12.5133 0001558  68.4537 291.6621 15.08855147138362,6917.834,95.437,540.777,538.621,0.0
51717.0,STARLINK-3445,PAYLOAD,2024-08-16 02:09:04,15.08856476,0.0001504,53.2186,10.7292,69.146,290.9693,0.00032123,4.83e-05,0.0,0 STARLINK-3445,1 51717U 22016D   24229.08963904  .00004830  00000-0  32123-3 0  9999,2 51717  53.2186  10.7292 0001504  69.1460 290.9693 15.08856476137284,6917.83,95.437,540.735,538.655,0.0
51717.0,STARLINK-3445,PAYLOAD,2024-08-17 19:29:07,15.08831285,0.0001703,53.2195,2.9994,75.4333,284.6848,-0.00015966,-2.828e-05,0.0,0 STARLINK-3445,1 51717U 22016D   24230.81188868 -.00002828  00000-0 -15966-3 0  9993,2 51717  53.2195   2.9994 0001703  75.4333 284.6848 15.08831285138684,6917.907,95.438,540.95,538.594,0.0
51717.0,STARLINK-3445,PAYLOAD,2024-08-18 16:09:06,15.08852133,0.0001401,53.2196,359.1352,72.0661,288.0483,0.00023226,3.412e-05,0.0,0 STARLINK-3445,1 51717U 22016D   24231.67299529  .00003412  00000-0  23226-3 0  9991,2 51717  53.2196 359.1352 0001401  72.0661 288.0483 15.08852133138815,6917.843,95.437,540.677,538.739,0.0
51717.0,STARLINK-3445,PAYLOAD,2024-08-19 14:24:31,15.08840607,0.0001362,53.2193,354.9736,91.2879,268.827,2.6077e-05,1.27e-06,0.0,0 STARLINK-3445,1 51717U 22016D   24232.60036905  .00000127  00000-0  26077-4 0  9990,2 51717  53.2193 354.9736 0001362  91.2879 268.8270 15.08840607137813,6917.879,95.438,540.686,538.801,0.0
51717.0,STARLINK-3445,PAYLOAD,2024-08-19 17:35:18,15.08840136,0.0001215,53.2197,354.3786,96.0939,264.0192,2.8479e-05,1.65e-06,0.0,0 STARLINK-3445,1 51717U 22016D   24232.73284860  .00000165  00000-0  28479-4 0  9999,2 51717  53.2197 354.3786 0001215  96.0939 264.0192 15.08840136138979,6917.88,95.438,540.585,538.904,0.0
51717.0,STARLINK-3445,PAYLOAD,2024-08-20 12:39:55,15.0885116,0.0001235,53.2184,350.8138,72.219,287.8936,1.2011e-05,-9.7e-07,0.0,0 STARLINK-3445,1 51717U 22016D   24233.52772239 -.00000097  00000-0  12011-4 0  9999,2 51717  53.2184 350.8138 0001235  72.2190 287.8936 15.08851160139096,6917.846,95.437,540.566,538.857,0.0
51717.0,STARLINK-3445,PAYLOAD,2024-08-20 14:15:18,15.08855351,0.0001507,53.2188,350.5155,74.9048,285.2111,6.5766e-06,-1.83e-06,0.0,0 STARLINK-3445,1 51717U 22016D   24233.59395847 -.00000183  00000-0  65766-5 0  9994,2 51717  53.2188 350.5155 0001507  74.9048 285.2111 15.08855351137966,6917.833,95.437,540.741,538.656,0.0
51717.0,STARLINK-3445,PAYLOAD,2024-08-21 12:30:42,15.08840617,0.0001095,53.2167,346.3525,109.5024,250.6087,5.6969e-05,6.19e-06,0.0,0 STARLINK-3445,1 51717U 22016D   24234.52132511  .00000619  00000-0  56969-4 0  9992,2 51717  53.2167 346.3525 0001095 109.5024 250.6087 15.08840617139248,6917.879,95.438,540.501,538.986,0.0
51717.0,STARLINK-3445,PAYLOAD,2024-08-21 14:06:05,15.08838374,0.0001091,53.2178,346.0559,108.7997,251.3113,3.4642e-05,2.64e-06,0.0,0 STARLINK-3445,1 51717U 22016D   24234.58756708  .00000264  00000-0  34642-4 0  9998,2 51717  53.2178 346.0559 0001091 108.7997 251.3113 15.08838374138110,6917.885,95.438,540.505,538.996,0.0
